     3.00           N                   E                   RINEX VERSION / TYPE
BRD_USR             ESA                 20190114 151743  UTCPGM / RUN BY / DATE
 GAL   4.0250E+01  1.6406E-01 -7.0190E-04  0.0000E+00       IONOSPHERIC CORR
GAUT  2.7939677238E-09-1.776356839E-15  86400 2036 GSTB   0 TIME SYSTEM CORR
GPGA -1.4551915228E-09-1.110223025E-14 172800 2036 GSTB   0 TIME SYSTEM CORR
                                                            END OF HEADER
E09 2019 01 14 13 30 00 6.558493245393E-03-1.132605120802E-11 0.000000000000E+00
     9.700000000000E+01-5.675000000000E+01 3.354068281835E-09 1.276983036132E+00
    -2.481043338776E-06 2.391349989921E-04 9.335577487946E-06 5.440616731644E+03
     1.350000000000E+05-1.862645149231E-08 1.111442528088E+00-3.539025783539E-08
     9.584552191413E-01 1.390312500000E+02 8.452139987842E-02-5.610233688752E-09
    -2.125088518467E-10 5.210000000000E+02 2.036000000000E+03 0.000000000000E+00
     3.120000000000E+00 0.000000000000E+00-3.492459654808E-09-3.958120942116E-09
     1.356850000000E+05 0.000000000000E+00 0.000000000000E+00 0.000000000000E+00
E11 2019 01 14 13 30 00 5.719771899749E-03 6.821210263297E-13 0.000000000000E+00
     9.700000000000E+01-2.250000000000E+01 2.770472544159E-09-2.486485962247E+00
    -9.723007678986E-07 2.820942318067E-04 8.344650268555E-06 5.440602308273E+03
     1.350000000000E+05-1.862645149231E-09-9.852841668004E-01-3.725290298462E-09
     9.819752158036E-01 1.728750000000E+02-3.392384286994E-01-5.448798392895E-09
     3.107272287506E-10 5.210000000000E+02 2.036000000000E+03 0.000000000000E+00
     3.120000000000E+00 0.000000000000E+00-1.862645149231E-08-2.002343535423E-08
     1.356850000000E+05 0.000000000000E+00 0.000000000000E+00 0.000000000000E+00
E15 2019 01 14 13 30 00 9.229868301190E-04-1.037392394210E-12 0.000000000000E+00
     9.700000000000E+01 2.812500000000E-01 2.741185609955E-09 2.685493202463E+00
    -1.583248376846E-07 3.913658438250E-04 7.893890142441E-06 5.440599760056E+03
     1.350000000000E+05-2.607703208923E-08-9.905784366080E-01 2.607703208923E-08
     9.851751677001E-01 1.831562500000E+02-1.580775430830E+00-5.486657112720E-09
     3.146559638267E-10 5.210000000000E+02 2.036000000000E+03 0.000000000000E+00
     3.120000000000E+00 4.550000000000E+02 1.629814505577E-09 1.396983861923E-09
     1.356850000000E+05 0.000000000000E+00 0.000000000000E+00 0.000000000000E+00
E18 2019 01 14 13 30 00 5.606899736449E-03-2.847855284926E-11 0.000000000000E+00
     9.700000000000E+01-1.197812500000E+02 4.599834458711E-09 2.406706135874E+00
    -5.070120096207E-06 1.663007130846E-01 4.777684807777E-06 5.289382320404E+03
     1.350000000000E+05 2.402812242508E-06-1.570397781097E+00-8.009374141693E-07
     8.818506886437E-01 2.083437500000E+02 1.442637585955E+00-5.585589805093E-09
    -4.285892810353E-12 5.210000000000E+02 2.036000000000E+03 0.000000000000E+00
     3.120000000000E+00 4.550000000000E+02 1.420266926289E-08 1.583248376846E-08
     1.356850000000E+05 0.000000000000E+00 0.000000000000E+00 0.000000000000E+00
E19 2019 01 14 13 30 00-9.128125384450E-06 2.842170943040E-13 0.000000000000E+00
     9.700000000000E+01-5.037500000000E+01 3.371569010811E-09 6.315065516398E-01
    -2.350658178329E-06 1.348000951111E-04 1.051649451256E-05 5.440614049911E+03
     1.350000000000E+05 1.862645149231E-08 1.116797662603E+00-2.980232238770E-08
     9.582110873722E-01 1.119375000000E+02 2.380194906226E+00-5.605590638208E-09
    -2.607251459631E-10 5.210000000000E+02 2.036000000000E+03 0.000000000000E+00
     3.120000000000E+00 0.000000000000E+00-8.847564458847E-09-9.313225746155E-09
     1.356850000000E+05 0.000000000000E+00 0.000000000000E+00 0.000000000000E+00
E25 2019 01 14 13 30 00 1.924078038428E-03-1.136868377216E-11 0.000000000000E+00
     9.700000000000E+01 4.837500000000E+01 2.815117260934E-09-1.402898076107E-01
     2.285465598106E-06 1.786682987586E-04 4.604458808899E-06 5.440623798370E+03
     1.350000000000E+05 1.862645149231E-09-3.073189493466E+00-1.862645149231E-09
     9.896703038777E-01 2.566875000000E+02-1.355587963737E+00-5.609876531018E-09
    -1.232194182976E-10 5.210000000000E+02 2.036000000000E+03 0.000000000000E+00
     3.120000000000E+00 0.000000000000E+00-1.164153218269E-09-1.396983861923E-09
     1.356850000000E+05 0.000000000000E+00 0.000000000000E+00 0.000000000000E+00
E26 2019 01 14 13 30 00 5.020656739362E-03-4.332889602665E-11 0.000000000000E+00
     9.700000000000E+01-5.156250000000E+00 2.811545683592E-09 1.518594568931E+00
    -1.471489667892E-07 3.167797112837E-04 9.121373295784E-06 5.440608373642E+03
     1.350000000000E+05 1.676380634308E-08-9.816685223429E-01 2.235174179077E-08
     9.783331642118E-01 1.498750000000E+02-1.978260171071E+00-5.540230772850E-09
     3.807301446530E-10 5.210000000000E+02 2.036000000000E+03 0.000000000000E+00
     3.120000000000E+00 0.000000000000E+00 1.164153218269E-09 1.164153218269E-09
     1.356850000000E+05 0.000000000000E+00 0.000000000000E+00 0.000000000000E+00
E33 2019 01 14 13 30 00 8.479183306918E-04 4.263256414561E-14 0.000000000000E+00
     9.700000000000E+01-1.806250000000E+01 2.663325223900E-09 1.511866615999E-01
    -8.214265108109E-07 3.724689595401E-04 9.048730134964E-06 5.440601978302E+03
     1.350000000000E+05 2.235174179077E-08-9.906034320263E-01 2.421438694000E-08
     9.852125803671E-01 1.527500000000E+02-1.402270579341E+00-5.477013853897E-09
     3.814444601214E-10 5.210000000000E+02 2.036000000000E+03 0.000000000000E+00
     3.120000000000E+00 4.550000000000E+02-7.916241884232E-09-9.080395102501E-09
     1.356850000000E+05 0.000000000000E+00 0.000000000000E+00 0.000000000000E+00
E36 2019 01 14 13 30 00 7.597535150126E-04-4.504840944719E-12 0.000000000000E+00
     9.700000000000E+01-1.178125000000E+01 2.635824078367E-09-2.083203864911E+00
    -4.302710294724E-07 3.348339814693E-04 7.631257176399E-06 5.440603485107E+03
     1.350000000000E+05-9.313225746155E-09-9.905768434902E-01-2.607703208923E-08
     9.852214222440E-01 1.877812500000E+02-1.522430245045E+00-5.458441651719E-09
     3.221562762449E-10 5.210000000000E+02 2.036000000000E+03 0.000000000000E+00
     3.120000000000E+00 4.550000000000E+02 9.313225746155E-10 1.164153218269E-09
     1.356850000000E+05 0.000000000000E+00 0.000000000000E+00 0.000000000000E+00
E03 2019 01 14 13 30 00-1.220878912136E-04-4.220623850415E-12 0.000000000000E+00
     9.700000000000E+01-3.431250000000E+01 3.348710915822E-09-8.344619458895E-01
    -1.607462763786E-06 2.607601927593E-04 9.285286068916E-06 5.440622234344E+03
     1.350000000000E+05-2.793967723846E-08 1.120046809508E+00 2.607703208923E-08
     9.524383394856E-01 1.389062500000E+02 6.248576401717E-01-5.622734209449E-09
    -1.571494030463E-10 2.580000000000E+02 2.036000000000E+03 0.000000000000E+00
     3.120000000000E+00 0.000000000000E+00-1.862645149231E-09 0.000000000000E+00
     1.357000000000E+05 0.000000000000E+00 0.000000000000E+00 0.000000000000E+00
E05 2019 01 14 13 30 00 1.251994981430E-04-6.536993168993E-12 0.000000000000E+00
     9.700000000000E+01-4.937500000000E+01 3.398355840876E-09-1.044793169749E+00
    -2.259388566017E-06 1.332764513791E-04 9.397044777870E-06 5.440617313385E+03
     1.350000000000E+05-3.166496753693E-08 1.120030900274E+00-1.862645149231E-08
     9.524519782708E-01 1.341562500000E+02 1.622693834272E+00-5.650592512716E-09
    -1.782217093638E-10 2.580000000000E+02 2.036000000000E+03 0.000000000000E+00
     3.120000000000E+00 0.000000000000E+00-1.629814505577E-09 0.000000000000E+00
     1.357000000000E+05 0.000000000000E+00 0.000000000000E+00 0.000000000000E+00
E07 2019 01 14 13 30 00-1.124312402681E-04-7.091216502886E-12 0.000000000000E+00
     9.700000000000E+01-3.350000000000E+01 3.456929709284E-09-1.768802787679E+00
    -1.497566699982E-06 1.314175315201E-04 1.000985503197E-05 5.440618976593E+03
     1.350000000000E+05 1.005828380585E-07 1.120049327190E+00 3.352761268616E-08
     9.524813170929E-01 1.218125000000E+02-1.121206017017E-02-5.704880488314E-09
    -2.025084352892E-10 2.580000000000E+02 2.036000000000E+03 0.000000000000E+00
     3.120000000000E+00 0.000000000000E+00 2.328306436539E-10 0.000000000000E+00
     1.357000000000E+05 0.000000000000E+00 0.000000000000E+00 0.000000000000E+00
E08 2019 01 14 13 30 00 6.423586572055E-03-7.418066161335E-12 0.000000000000E+00
     9.700000000000E+01-2.793750000000E+01 3.365854487064E-09-1.469932503743E+00
    -1.307576894760E-06 2.121187280864E-04 9.745359420776E-06 5.440617382050E+03
     1.350000000000E+05-1.676380634308E-08 1.111444526434E+00 5.029141902924E-08
     9.584241028738E-01 1.318437500000E+02 4.765154779481E-01-5.597733168055E-09
    -1.364342544629E-10 2.580000000000E+02 2.036000000000E+03 0.000000000000E+00
     3.120000000000E+00 0.000000000000E+00-8.381903171539E-09 0.000000000000E+00
     1.357000000000E+05 0.000000000000E+00 0.000000000000E+00 0.000000000000E+00
E09 2019 01 14 13 30 00 6.558493711054E-03-1.132605120802E-11 0.000000000000E+00
     9.700000000000E+01-5.675000000000E+01 3.354068281835E-09 1.276983036132E+00
    -2.481043338776E-06 2.391349989921E-04 9.335577487946E-06 5.440616731644E+03
     1.350000000000E+05-1.862645149231E-08 1.111442528088E+00-3.539025783539E-08
     9.584552191413E-01 1.390312500000E+02 8.452139987842E-02-5.610233688752E-09
    -2.125088518467E-10 2.580000000000E+02 2.036000000000E+03 0.000000000000E+00
     3.120000000000E+00 0.000000000000E+00-3.492459654808E-09 0.000000000000E+00
     1.357000000000E+05 0.000000000000E+00 0.000000000000E+00 0.000000000000E+00
